ONEWEB-0572             
1 55151U 23004M   26164.57065243  .00000090  00000+0  19991-3 0  9997
2 55151  87.9135   6.5850 0001915  93.8597 266.2754 13.17649002167002
ONEWEB-0573             
1 55152U 23004N   26164.47289952  .00000033  00000+0  52160-4 0  9995
2 55152  87.9159 336.2086 0002082 117.3588 242.7756 13.18686046169206
ONEWEB-0588             
1 55153U 23004P   26164.46615266  .00000059  00000+0  11567-3 0  9999
2 55153  87.9157 336.2103 0002304  98.1740 261.9653 13.18685109169206
ONEWEB-0598             
1 55154U 23004Q   26164.65060350  .00000024  00000+0  31584-4 0  9993
2 55154  87.8888  21.7731 0001551 108.5807 251.5490 13.11419665165433
ONEWEB-0599             
1 55155U 23004R   26164.60778020  .00000038  00000+0  64780-4 0  9998
2 55155  87.9134   6.5765 0001614  87.6461 272.4855 13.17648373167019
ONEWEB-0614             
1 55156U 23004S   26164.64550910 -.00000383  00000+0 -11176-2 0  9993
2 55156  87.8890  21.7829 0002017  82.5204 277.6154 13.11418379165376
ONEWEB-0616             
1 55157U 23004T   26164.57403592  .00000011  00000+0 -48442-5 0  9995
2 55157  87.9137   6.5866 0001033  68.6970 291.4272 13.17648655167225
ONEWEB-0617             
1 55158U 23004U   26164.63364488 -.00000521  00000+0 -15046-2 0  9991
2 55158  87.8893  21.7759 0002255  86.3570 273.7816 13.11418043165397
ONEWEB-0618             
1 55159U 23004V   26164.55360030  .00003664  00000+0  20494-3 0  9995
2 55159  86.9094 179.1098 0010170 317.3845  42.6605 15.13116295181713
ONEWEB-0619             
1 55160U 23004W   26164.60609921  .00000028  00000+0  39899-4 0  9999
2 55160  87.9144   6.5608 0002001  75.3974 284.7379 13.17648654167127
ONEWEB-0620             
1 55161U 23004X   26164.62854319 -.00000227  00000+0 -67747-3 0  9990
2 55161  87.8886  21.7856 0001821  94.4776 265.6560 13.11416991165360
ONEWEB-0621             
1 55162U 23004Y   26164.57939355  .00000275  00000+0  73899-3 0  9995
2 55162  87.8897  21.7840 0002027  81.5985 278.5373 13.11419704165331
ONEWEB-0622             
1 55163U 23004Z   26164.58448780  .00000434  00000+0  11887-2 0  9999
2 55163  87.8901  21.7855 0002528  90.5917 269.5501 13.11418728165322
ONEWEB-0623             
1 55164U 23004AA  26164.60102962  .00000053  00000+0  10310-3 0  9990
2 55164  87.9131   6.5926 0002578  79.5447 280.5975 13.17649157167114
ONEWEB-0624             
1 55165U 23004AB  26164.53685813 -.00000201  00000+0 -58965-3 0  9999
2 55165  87.8946 351.3120 0001902  88.4110 271.7237 13.12927781167593
ONEWEB-0625             
1 55166U 23004AC  26164.59091193  .00000033  00000+0  52721-4 0  9994
2 55166  87.9134   6.5901 0001756  84.1959 275.9373 13.17649444167107
ONEWEB-0626             
1 55167U 23004AD  26164.58079040  .00000034  00000+0  54842-4 0  9998
2 55167  87.9134   6.5912 0001812 101.5159 258.6177 13.17649338167101
ONEWEB-0627             
1 55168U 23004AE  26164.56896475  .00000043  00000+0  77848-4 0  9997
2 55168  87.9135   6.5941 0002325  82.0715 278.0681 13.17648106167104
ONEWEB-0628             
1 55169U 23004AF  26164.51693455  .00000346  00000+0  92670-3 0  9991
2 55169  87.8947 351.3829 0002387  79.5512 280.5886 13.12443910167550
ONEWEB-0629             
1 55170U 23004AG  26164.62042571  .00000035  00000+0  56478-4 0  9994
2 55170  87.9133   6.5802 0001921  78.4903 281.6445 13.17647571167114
ONEWEB-0631             
1 55171U 23004AH  26164.53528384  .00000018  00000+0  11934-4 0  9995
2 55171  87.9168 336.1622 0002185 103.6224 256.5151 13.18685384169195
ONEWEB-0709             
1 55172U 23004AJ  26164.61838543 -.00000281  00000+0 -82990-3 0  9999
2 55172  87.8886  21.7898 0001625 114.3975 245.7322 13.11414377165409
ONEWEB-0710             
1 55173U 23004AK  26164.63478032 -.00000001  00000+0 -34669-4 0  9996
2 55173  87.9135   6.5725 0002010  87.5999 272.5363 13.17649553167119
ONEWEB-0711             
1 55174U 23004AL  26164.58958266  .00000542  00000+0  14937-2 0  9995
2 55174  87.8891  21.7829 0002549  84.0458 276.0961 13.11418863165361
ONEWEB-0713             
1 55175U 23004AM  26164.60822481  .00000152  00000+0  39274-3 0  9997
2 55175  87.8891  21.7806 0002204  84.6400 275.4979 13.11414310165352
ONEWEB-0715             
1 55176U 23004AN  26164.60313558  .00000418  00000+0  11434-2 0  9990
2 55176  87.8890  21.7824 0001959 106.1617 253.9727 13.11417109165393
ONEWEB-0716             
1 55177U 23004AP  26164.62803020  .00000020  00000+0  19450-4 0  9998
2 55177  87.9137   6.5768 0001625  83.9854 276.1463 13.17649633167113
ONEWEB-0717             
1 55178U 23004AQ  26164.53521994  .00000069  00000+0  14529-3 0  9990
2 55178  87.9144   6.5824 0002408  91.0825 269.0583 13.17648041167153
ONEWEB-0719             
1 55179U 23004AR  26164.62128697 -.00000009  00000+0 -55857-4 0  9990
2 55179  87.9143   6.5457 0001769  81.8565 278.2767 13.17648471167111
ONEWEB-0530             
1 55796U 23029A   26164.60512240 -.00000054  00000+0 -16418-3 0  9990
2 55796  87.9182 275.1831 0002336  92.8882 267.2519 13.20771312160676
