OBJECT_NAME,OBJECT_ID,EPOCH,MEAN_MOTION,ECCENTRICITY,INCLINATION,RA_OF_ASC_NODE,ARG_OF_PERICENTER,MEAN_ANOMALY,EPHEMERIS_TYPE,CLASSIFICATION_TYPE,NORAD_CAT_ID,ELEMENT_SET_NO,REV_AT_EPOCH,BSTAR,MEAN_MOTION_DOT,MEAN_MOTION_DDOT
ONEWEB-0572,2023-004M,2026-06-13T13:41:44.369952,13.17649002,.00019154,87.9135,6.5850,93.8597,266.2754,0,U,55151,999,16700,.19991001E-3,.9E-6,0
ONEWEB-0573,2023-004N,2026-06-13T11:20:58.518528,13.18686046,.00020826,87.9159,336.2086,117.3588,242.7756,0,U,55152,999,16920,.52159613E-4,.33E-6,0
ONEWEB-0588,2023-004P,2026-06-13T11:11:15.589824,13.18685109,.00023046,87.9157,336.2103,98.1740,261.9653,0,U,55153,999,16920,.11566559E-3,.59E-6,0
ONEWEB-0598,2023-004Q,2026-06-13T15:36:52.142400,13.11419665,.00015518,87.8888,21.7731,108.5807,251.5490,0,U,55154,999,16543,.31584268E-4,.24E-6,0
ONEWEB-0599,2023-004R,2026-06-13T14:35:12.209280,13.17648373,.00016145,87.9134,6.5765,87.6461,272.4855,0,U,55155,999,16701,.64779942E-4,.38E-6,0
ONEWEB-0614,2023-004S,2026-06-13T15:29:31.986240,13.11418379,.00020177,87.8890,21.7829,82.5204,277.6154,0,U,55156,999,16537,-.11175554E-2,-.383E-5,0
ONEWEB-0616,2023-004T,2026-06-13T13:46:36.703488,13.17648655,.00010339,87.9137,6.5866,68.6970,291.4272,0,U,55157,999,16722,-.4844247E-5,.11E-6,0
ONEWEB-0617,2023-004U,2026-06-13T15:12:26.917632,13.11418043,.00022555,87.8893,21.7759,86.3570,273.7816,0,U,55158,999,16539,-.15046304E-2,-.521E-5,0
ONEWEB-0618,2023-004V,2026-06-13T13:17:11.065920,15.13116295,.00101705,86.9094,179.1098,317.3845,42.6605,0,U,55159,999,18171,.20493673E-3,.3664E-4,0
ONEWEB-0619,2023-004W,2026-06-13T14:32:46.971744,13.17648654,.00020011,87.9144,6.5608,75.3974,284.7379,0,U,55160,999,16712,.3989867E-4,.28E-6,0
ONEWEB-0620,2023-004X,2026-06-13T15:05:06.131616,13.11416991,.00018216,87.8886,21.7856,94.4776,265.6560,0,U,55161,999,16536,-.67747121E-3,-.227E-5,0
ONEWEB-0621,2023-004Y,2026-06-13T13:54:19.602720,13.11419704,.00020276,87.8897,21.7840,81.5985,278.5373,0,U,55162,999,16533,.73898782E-3,.275E-5,0
ONEWEB-0622,2023-004Z,2026-06-13T14:01:39.745920,13.11418728,.0002528,87.8901,21.7855,90.5917,269.5501,0,U,55163,999,16532,.11887016E-2,.434E-5,0
ONEWEB-0623,2023-004AA,2026-06-13T14:25:28.959168,13.17649157,.00025789,87.9131,6.5926,79.5447,280.5975,0,U,55164,999,16711,.10309769E-3,.53E-6,0
ONEWEB-0624,2023-004AB,2026-06-13T12:53:04.542432,13.12927781,.0001902,87.8946,351.3120,88.4110,271.7237,0,U,55165,999,16759,-.58965479E-3,-.201E-5,0
ONEWEB-0625,2023-004AC,2026-06-13T14:10:54.790752,13.17649444,.00017568,87.9134,6.5901,84.1959,275.9373,0,U,55166,999,16710,.52721355E-4,.33E-6,0
ONEWEB-0626,2023-004AD,2026-06-13T13:56:20.290560,13.17649338,.00018126,87.9134,6.5912,101.5159,258.6177,0,U,55167,999,16710,.54842351E-4,.34E-6,0
ONEWEB-0627,2023-004AE,2026-06-13T13:39:18.554400,13.17648106,.00023251,87.9135,6.5941,82.0715,278.0681,0,U,55168,999,16710,.77848155E-4,.43E-6,0
ONEWEB-0628,2023-004AF,2026-06-13T12:24:23.145120,13.12443910,.00023872,87.8947,351.3829,79.5512,280.5886,0,U,55169,999,16755,.92670002E-3,.346E-5,0
ONEWEB-0629,2023-004AG,2026-06-13T14:53:24.781344,13.17647571,.0001921,87.9133,6.5802,78.4903,281.6445,0,U,55170,999,16711,.56478316E-4,.35E-6,0
ONEWEB-0631,2023-004AH,2026-06-13T12:50:48.523776,13.18685384,.00021851,87.9168,336.1622,103.6224,256.5151,0,U,55171,999,16919,.11933545E-4,.18E-6,0
ONEWEB-0709,2023-004AJ,2026-06-13T14:50:28.501152,13.11414377,.00016254,87.8886,21.7898,114.3975,245.7322,0,U,55172,999,16540,-.82990424E-3,-.281E-5,0
ONEWEB-0710,2023-004AK,2026-06-13T15:14:05.019648,13.17649553,.00020103,87.9135,6.5725,87.5999,272.5363,0,U,55173,999,16711,-.34668877E-4,-.1E-7,0
ONEWEB-0711,2023-004AL,2026-06-13T14:08:59.941824,13.11418863,.00025496,87.8891,21.7829,84.0458,276.0961,0,U,55174,999,16536,.14936913E-2,.542E-5,0
ONEWEB-0713,2023-004AM,2026-06-13T14:35:50.623584,13.11414310,.00022048,87.8891,21.7806,84.6400,275.4979,0,U,55175,999,16535,.39274256E-3,.152E-5,0
ONEWEB-0715,2023-004AN,2026-06-13T14:28:30.914112,13.11417109,.00019596,87.8890,21.7824,106.1617,253.9727,0,U,55176,999,16539,.11433993E-2,.418E-5,0
ONEWEB-0716,2023-004AP,2026-06-13T15:04:21.809280,13.17649633,.00016256,87.9137,6.5768,83.9854,276.1463,0,U,55177,999,16711,.19449579E-4,.2E-6,0
ONEWEB-0717,2023-004AQ,2026-06-13T12:50:43.002816,13.17648041,.00024081,87.9144,6.5824,91.0825,269.0583,0,U,55178,999,16715,.1452862E-3,.69E-6,0
ONEWEB-0719,2023-004AR,2026-06-13T14:54:39.194208,13.17648471,.00017691,87.9143,6.5457,81.8565,278.2767,0,U,55179,999,16711,-.55856576E-4,-.9E-7,0
ONEWEB-0530,2023-029A,2026-06-13T14:31:22.575360,13.20771312,.00023365,87.9182,275.1831,92.8882,267.2519,0,U,55796,999,16067,-.16418022E-3,-.54E-6,0
